NORAD_CAT_ID,OBJECT_NAME,OBJECT_TYPE,EPOCH,MEAN_MOTION,ECCENTRICITY,INCLINATION,RA_OF_ASC_NODE,ARG_OF_PERICENTER,MEAN_ANOMALY,BSTAR,MEAN_MOTION_DOT,MEAN_MOTION_DDOT,TLE_LINE0,TLE_LINE1,TLE_LINE2,SEMIMAJOR_AXIS,PERIOD,APOGEE,PERIGEE,DECAYED
52689.0,STARLINK-4078,PAYLOAD,2023-02-06 08:59:12,15.0883817,0.0001034,53.2147,164.8436,98.4838,261.6271,4.3287e-05,4.01e-06,0.0,0 STARLINK-4078,1 52689U 22053AK  23037.37444745  .00000401  00000-0  43287-4 0  9998,2 52689  53.2147 164.8436 0001034  98.4838 261.6271 15.08838170 40565,6917.886,95.438,540.466,539.036,0.0
52689.0,STARLINK-4078,PAYLOAD,2023-02-06 13:45:21,15.08843739,0.0001048,53.2146,163.9516,94.9542,265.157,9.2286e-05,1.181e-05,0.0,0 STARLINK-4078,1 52689U 22053AK  23037.57316277  .00001181  00000-0  92286-4 0  9997,2 52689  53.2146 163.9516 0001048  94.9542 265.1570 15.08843739 40996,6917.869,95.437,540.459,539.009,0.0
52689.0,STARLINK-4078,PAYLOAD,2023-02-06 18:31:29,15.08854154,0.0001151,53.2146,163.0573,110.4291,249.6825,0.00013396,1.846e-05,0.0,0 STARLINK-4078,1 52689U 22053AK  23037.77187364  .00001846  00000-0  13396-3 0  9994,2 52689  53.2146 163.0573 0001151 110.4291 249.6825 15.08854154 40623,6917.837,95.437,540.498,538.906,0.0
52689.0,STARLINK-4078,PAYLOAD,2023-02-07 00:53:02,15.08846959,0.0001112,53.2151,161.8694,110.7161,249.395,0.00016291,2.306e-05,0.0,0 STARLINK-4078,1 52689U 22053AK  23038.03683695  .00002306  00000-0  16291-3 0  9991,2 52689  53.2151 161.8694 0001112 110.7161 249.3950 15.08846959 40669,6917.859,95.437,540.493,538.955,0.0
52689.0,STARLINK-4078,PAYLOAD,2023-02-07 12:00:45,15.08838933,8.91e-05,53.2146,159.7885,86.6427,273.4667,0.00016805,2.388e-05,0.0,0 STARLINK-4078,1 52689U 22053AK  23038.50052478  .00002388  00000-0  16805-3 0  9993,2 52689  53.2146 159.7885 0000891  86.6427 273.4667 15.08838933 40734,6917.884,95.438,540.365,539.132,0.0
52689.0,STARLINK-4078,PAYLOAD,2023-02-07 13:36:08,15.08841943,0.0001064,53.2136,159.4898,108.1848,251.926,0.00022148,3.239e-05,0.0,0 STARLINK-4078,1 52689U 22053AK  23038.56676200  .00003239  00000-0  22148-3 0  9997,2 52689  53.2136 159.4898 0001064 108.1848 251.9260 15.08841943 41145,6917.874,95.437,540.476,539.003,0.0
52689.0,STARLINK-4078,PAYLOAD,2023-02-08 11:51:32,15.0882695,8.31e-05,53.2148,155.3282,90.0899,270.0188,-0.00019416,-3.375e-05,0.0,0 STARLINK-4078,1 52689U 22053AK  23039.49412863 -.00003375  00000-0 -19416-3 0  9990,2 52689  53.2148 155.3282 0000831  90.0899 270.0188 15.08826950 40888,6917.92,95.438,540.36,539.21,0.0
52689.0,STARLINK-4078,PAYLOAD,2023-02-08 13:26:55,15.08839339,0.0001253,53.2131,155.0291,138.3993,221.7094,-0.00012051,-2.205e-05,0.0,0 STARLINK-4078,1 52689U 22053AK  23039.56036031 -.00002205  00000-0 -12051-3 0  9996,2 52689  53.2131 155.0291 0001253 138.3993 221.7094 15.08839339 41297,6917.882,95.438,540.614,538.881,0.0
52689.0,STARLINK-4078,PAYLOAD,2023-02-08 15:02:18,15.08844753,0.0001091,53.2146,154.7314,95.6743,264.4373,-4.0265e-05,-9.29e-06,0.0,0 STARLINK-4078,1 52689U 22053AK  23039.62660080 -.00000929  00000-0 -40265-4 0  9990,2 52689  53.2146 154.7314 0001091  95.6743 264.4373 15.08844753 40900,6917.866,95.437,540.486,538.976,0.0
52689.0,STARLINK-4078,PAYLOAD,2023-02-09 11:42:19,15.08841283,0.0001072,53.2144,150.8671,103.3723,256.7389,0.00020171,2.924e-05,0.0,0 STARLINK-4078,1 52689U 22053AK  23040.48772570  .00002924  00000-0  20171-3 0  9992,2 52689  53.2144 150.8671 0001072 103.3723 256.7389 15.08841283 41430,6917.876,95.437,540.483,539.0,0.0
52689.0,STARLINK-4078,PAYLOAD,2023-02-09 14:53:05,15.08850637,0.0001198,53.2144,150.2736,66.4028,293.709,0.00025791,3.82e-05,0.0,0 STARLINK-4078,1 52689U 22053AK  23040.62020282  .00003820  00000-0  25791-3 0  9993,2 52689  53.2144 150.2736 0001198  66.4028 293.7090 15.08850637 41457,6917.848,95.437,540.542,538.884,0.0
52689.0,STARLINK-4078,PAYLOAD,2023-02-10 00:25:24,15.08847976,0.0001164,53.2144,148.4892,75.9149,284.1972,0.00020168,2.924e-05,0.0,0 STARLINK-4078,1 52689U 22053AK  23041.01764299  .00002924  00000-0  20168-3 0  9997,2 52689  53.2144 148.4892 0001164  75.9149 284.1972 15.08847976 41119,6917.856,95.437,540.526,538.916,0.0
52689.0,STARLINK-4078,PAYLOAD,2023-02-10 02:00:47,15.08841011,0.0001222,53.2139,148.1922,77.1688,282.944,0.00035322,5.338e-05,0.0,0 STARLINK-4078,1 52689U 22053AK  23041.08388700  .00005338  00000-0  35322-3 0  9993,2 52689  53.2139 148.1922 0001222  77.1688 282.9440 15.08841011 41526,6917.877,95.437,540.588,538.897,0.0
52689.0,STARLINK-4078,PAYLOAD,2023-02-10 13:08:28,15.08860488,0.0001101,53.2145,146.1091,83.2562,276.8555,0.00036418,5.516e-05,0.0,0 STARLINK-4078,1 52689U 22053AK  23041.54755574  .00005516  00000-0  36418-3 0  9996,2 52689  53.2145 146.1091 0001101  83.2562 276.8555 15.08860488 41194,6917.818,95.436,540.444,538.921,0.0
52689.0,STARLINK-4078,PAYLOAD,2023-02-11 01:51:34,15.08844536,0.0001439,53.2135,143.7301,112.9049,247.2095,0.00011692,1.574e-05,0.0,0 STARLINK-4078,1 52689U 22053AK  23042.07748121  .00001574  00000-0  11692-3 0  9992,2 52689  53.2135 143.7301 0001439 112.9049 247.2095 15.08844536 41270,6917.867,95.437,540.727,538.736,0.0
52689.0,STARLINK-4078,PAYLOAD,2023-02-11 09:48:30,15.08828443,0.0001412,53.2134,142.2421,118.3429,241.7706,-0.00023432,-4.014e-05,0.0,0 STARLINK-4078,1 52689U 22053AK  23042.40868695 -.00004014  00000-0 -23432-3 0  9997,2 52689  53.2134 142.2421 0001412 118.3429 241.7706 15.08828443 41322,6917.916,95.438,540.758,538.804,0.0
52689.0,STARLINK-4078,PAYLOAD,2023-02-11 12:59:16,15.0883025,0.0001266,53.2137,141.6476,113.0672,247.0454,-7.6735e-05,-1.509e-05,0.0,0 STARLINK-4078,1 52689U 22053AK  23042.54116701 -.00001509  00000-0 -76735-4 0  9997,2 52689  53.2137 141.6476 0001266 113.0672 247.0454 15.08830250 41741,6917.91,95.438,540.651,538.899,0.0
52689.0,STARLINK-4078,PAYLOAD,2023-02-12 12:50:04,15.0883295,0.0001526,53.2132,137.1877,126.3361,233.7772,0.00022097,3.23e-05,0.0,0 STARLINK-4078,1 52689U 22053AK  23043.53477498  .00003230  00000-0  22097-3 0  9992,2 52689  53.2132 137.1877 0001526 126.3361 233.7772 15.08832950 41892,6917.902,95.438,540.823,538.711,0.0
52689.0,STARLINK-4078,PAYLOAD,2023-02-13 09:30:04,15.08861987,0.0001427,53.2133,133.3223,114.7859,245.3281,0.00074068,0.00011527,0.0,0 STARLINK-4078,1 52689U 22053AK  23044.39588455  .00011527  00000-0  74068-3 0  9996,2 52689  53.2133 133.3223 0001427 114.7859 245.3281 15.08861987 41626,6917.813,95.436,540.665,538.691,0.0
52689.0,STARLINK-4078,PAYLOAD,2023-02-13 12:40:50,15.08875119,0.0001239,53.2135,132.7286,105.4204,254.6925,0.0008967,0.00014025,0.0,0 STARLINK-4078,1 52689U 22053AK  23044.52835923  .00014025  00000-0  89670-3 0  9997,2 52689  53.2135 132.7286 0001239 105.4204 254.6925 15.08875119 42049,6917.773,95.435,540.495,538.781,0.0
52689.0,STARLINK-4078,PAYLOAD,2023-02-13 22:13:08,15.08868271,6.48e-05,53.2145,130.9452,110.2452,249.8609,0.00036128,5.471e-05,0.0,0 STARLINK-4078,1 52689U 22053AK  23044.92579261  .00005471  00000-0  36128-3 0  9996,2 52689  53.2145 130.9452 0000648 110.2452 249.8609 15.08868271 41705,6917.794,95.436,540.107,539.211,0.0
52689.0,STARLINK-4078,PAYLOAD,2023-02-14 12:31:37,15.08832215,0.0002003,53.2141,128.2667,92.287,267.8351,-0.00030882,-5.199e-05,0.0,0 STARLINK-4078,1 52689U 22053AK  23045.52196493 -.00005199  00000-0 -30882-3 0  9995,2 52689  53.2141 128.2667 0002003  92.2870 267.8351 15.08832215 41791,6917.904,95.438,541.155,538.384,0.0
52689.0,STARLINK-4078,PAYLOAD,2023-02-14 14:07:00,15.08831238,0.0001257,53.2136,127.9692,87.4399,272.6737,-0.00021368,-3.686e-05,0.0,0 STARLINK-4078,1 52689U 22053AK  23045.58820569 -.00003686  00000-0 -21368-3 0  9997,2 52689  53.2136 127.9692 0001257  87.4399 272.6737 15.08831238 42204,6917.907,95.438,540.642,538.903,0.0
52689.0,STARLINK-4078,PAYLOAD,2023-02-14 15:42:24,15.08831946,0.0001273,53.2134,127.6718,87.4525,272.6612,-0.00013383,-2.417e-05,0.0,0 STARLINK-4078,1 52689U 22053AK  23045.65444632 -.00002417  00000-0 -13383-3 0  9997,2 52689  53.2134 127.6718 0001273  87.4525 272.6612 15.08831946 42216,6917.905,95.438,540.651,538.889,0.0
52689.0,STARLINK-4078,PAYLOAD,2023-02-15 12:22:25,15.08847386,9.45e-05,53.2138,123.8087,101.2552,258.8547,0.00091984,0.00014385,0.0,0 STARLINK-4078,1 52689U 22053AK  23046.51557134  .00014385  00000-0  91984-3 0  9993,2 52689  53.2138 123.8087 0000945 101.2552 258.8547 15.08847386 41944,6917.858,95.437,540.377,539.069,0.0
52689.0,STARLINK-4078,PAYLOAD,2023-02-15 13:57:48,15.0886491,9.21e-05,53.2137,123.5088,83.7666,276.3431,0.001591,0.00025141,0.0,0 STARLINK-4078,1 52689U 22053AK  23046.58180904  .00025141  00000-0  15910-2 0  9993,2 52689  53.2137 123.5088 0000921  83.7666 276.3431 15.08864910 42350,6917.804,95.436,540.306,539.032,0.0
52689.0,STARLINK-4078,PAYLOAD,2023-02-15 15:33:11,15.08873024,0.0001028,53.2135,123.2114,84.0631,276.0478,0.0023003,0.00036545,0.0,0 STARLINK-4078,1 52689U 22053AK  23046.64804825  .00036545  00000-0  23003-2 0  9997,2 52689  53.2135 123.2114 0001028  84.0631 276.0478 15.08873024 41960,6917.779,95.435,540.356,538.933,0.0
52689.0,STARLINK-4078,PAYLOAD,2023-02-16 10:37:49,15.08852243,8.65e-05,53.2146,119.6427,119.1685,240.9393,0.0019517,0.0003092,0.0,0 STARLINK-4078,1 52689U 22053AK  23047.44293623  .00030920  00000-0  19517-2 0  9990,2 52689  53.2146 119.6427 0000865 119.1685 240.9393 15.08852243 42085,6917.843,95.437,540.306,539.11,0.0
52689.0,STARLINK-4078,PAYLOAD,2023-02-16 12:13:12,15.08845825,7.96e-05,53.2138,119.3457,82.3183,277.79,0.001793,0.00028367,0.0,0 STARLINK-4078,1 52689U 22053AK  23047.50917765  .00028367  00000-0  17930-2 0  9996,2 52689  53.2138 119.3457 0000796  82.3183 277.7900 15.08845825 42498,6917.863,95.437,540.278,539.177,0.0
52689.0,STARLINK-4078,PAYLOAD,2023-02-17 10:28:37,15.08845321,0.0001683,53.2142,115.1861,51.2497,308.8645,0.00069119,0.00010731,0.0,0 STARLINK-4078,1 52689U 22053AK  23048.43654366  .00010731  00000-0  69119-3 0  9997,2 52689  53.2142 115.1861 0001683  51.2497 308.8645 15.08845321 42230,6917.864,95.437,540.893,538.565,0.0
